QIANFAN-9               
1 60387U 24140J   25359.94196825  .00000144  00000+0  20343-3 0  9996
2 60387  88.9777 297.9716 0016525 153.0391 207.1622 13.50984088 69117
QIANFAN-10              
1 60388U 24140K   25359.94614869  .00000126  00000+0  17663-3 0  9991
2 60388  88.9787 297.3197 0015696 130.7841 229.4675 13.50984391 69242
QIANFAN-11              
1 60389U 24140L   25359.90920566  .00000123  00000+0  17119-3 0  9995
2 60389  88.9713 297.9008 0014592 152.0056 208.1883 13.50980637 68892
QIANFAN-12              
1 60390U 24140M   25359.92968850  .00000129  00000+0  18110-3 0  9995
2 60390  88.9756 297.9477 0013142 159.3014 200.8672 13.50981511 69028
QIANFAN-13              
1 60391U 24140N   25359.90087949  .00000132  00000+0  18615-3 0  9999
2 60391  88.9768 298.0523 0012877 161.9072 198.2540 13.50982037 69043
QIANFAN-14              
1 60392U 24140P   25359.92548600  .00000127  00000+0  17786-3 0  9990
2 60392  88.9747 297.9445 0016538 163.6387 196.5301 13.50981490 69057
QIANFAN-15              
1 60393U 24140Q   25359.93377980  .00000123  00000+0  17125-3 0  9996
2 60393  88.9770 297.9033 0012827 147.9908 212.2025 13.50980257 69046
QIANFAN-16              
1 60394U 24140R   25359.92150187  .00000112  00000+0  15538-3 0  9998
2 60394  88.9774 298.0251 0014363 166.6495 193.5039 13.50985499 68959
